NORAD_CAT_ID,OBJECT_NAME,OBJECT_TYPE,EPOCH,MEAN_MOTION,ECCENTRICITY,INCLINATION,RA_OF_ASC_NODE,ARG_OF_PERICENTER,MEAN_ANOMALY,BSTAR,MEAN_MOTION_DOT,MEAN_MOTION_DDOT,TLE_LINE0,TLE_LINE1,TLE_LINE2,SEMIMAJOR_AXIS,PERIOD,APOGEE,PERIGEE,DECAYED
55313.0,STARLINK-5313,PAYLOAD,2024-03-17 21:29:34,14.98331913,0.0003068,70.0008,24.3911,265.6931,94.3877,-6.469e-05,-8.65e-06,0.0,0 STARLINK-5313,1 55313U 23010AW  24077.89554192 -.00000865  00000-0 -64690-4 0  9996,2 55313  70.0008  24.3911 0003068 265.6931  94.3877 14.98331913 65330,6950.187,96.107,574.184,569.92,0.0
55313.0,STARLINK-5313,PAYLOAD,2024-03-18 03:54:06,14.98335267,0.0002833,70.0015,23.7181,260.6248,99.4591,-2.2489e-05,-3.61e-06,0.0,0 STARLINK-5313,1 55313U 23010AW  24078.16257789 -.00000361  00000-0 -22489-4 0  9990,2 55313  70.0015  23.7181 0002833 260.6248  99.4591 14.98335267 66566,6950.177,96.107,574.011,570.073,0.0
55313.0,STARLINK-5313,PAYLOAD,2024-03-18 21:31:35,14.98327062,0.0002868,70.0015,21.8666,264.133,95.9502,3.861e-05,3.68e-06,0.0,0 STARLINK-5313,1 55313U 23010AW  24078.89694125  .00000368  00000-0  38610-4 0  9997,2 55313  70.0015  21.8666 0002868 264.1330  95.9502 14.98327062 65489,6950.202,96.107,574.06,570.074,0.0
55313.0,STARLINK-5313,PAYLOAD,2024-03-19 05:32:15,14.98330798,0.0002832,70.0016,21.0246,266.1632,93.9204,8.04e-05,8.66e-06,0.0,0 STARLINK-5313,1 55313U 23010AW  24079.23073817  .00000866  00000-0  80400-4 0  9992,2 55313  70.0016  21.0246 0002832 266.1632  93.9204 14.98330798 66729,6950.19,96.107,574.024,570.087,0.0
55313.0,STARLINK-5313,PAYLOAD,2024-03-19 21:33:36,14.98335321,0.000278,70.0017,19.3407,263.7292,96.3551,2.1767e-05,1.67e-06,0.0,0 STARLINK-5313,1 55313U 23010AW  24079.89833544  .00000167  00000-0  21767-4 0  9990,2 55313  70.0017  19.3407 0002780 263.7292  96.3551 14.98335321 65634,6950.176,96.107,573.974,570.109,0.0
55313.0,STARLINK-5313,PAYLOAD,2024-03-20 05:34:16,14.98339572,0.0002751,70.0018,18.4991,261.7247,98.36,5.9707e-05,6.2e-06,0.0,0 STARLINK-5313,1 55313U 23010AW  24080.23213006  .00000620  00000-0  59707-4 0  9994,2 55313  70.0018  18.4991 0002751 261.7247  98.3600 14.98339572 66875,6950.163,96.106,573.94,570.116,0.0
55313.0,STARLINK-5313,PAYLOAD,2024-03-20 21:35:37,14.98323916,0.0002558,70.0032,16.8192,265.9095,94.1772,-2.7737e-05,-4.24e-06,0.0,0 STARLINK-5313,1 55313U 23010AW  24080.89974229 -.00000424  00000-0 -27737-4 0  9999,2 55313  70.0032  16.8192 0002558 265.9095  94.1772 14.98323916 66978,6950.212,96.107,573.855,570.299,0.0
55313.0,STARLINK-5313,PAYLOAD,2024-03-21 04:00:10,14.98324615,0.0002962,70.0015,16.1432,266.8303,93.2517,-6.6496e-05,-8.86e-06,0.0,0 STARLINK-5313,1 55313U 23010AW  24081.16678311 -.00000886  00000-0 -66496-4 0  9990,2 55313  70.0015  16.1432 0002962 266.8303  93.2517 14.98324615 65827,6950.21,96.107,574.133,570.016,0.0
55313.0,STARLINK-5313,PAYLOAD,2024-03-21 05:36:18,14.98325623,0.0002947,70.0018,15.9756,265.7093,94.3729,-5.1911e-05,-7.12e-06,0.0,0 STARLINK-5313,1 55313U 23010AW  24081.23354223 -.00000712  00000-0 -51911-4 0  9995,2 55313  70.0018  15.9756 0002947 265.7093  94.3729 14.98325623 67024,6950.206,96.107,574.12,570.023,0.0
55313.0,STARLINK-5313,PAYLOAD,2024-03-21 21:37:38,14.9833233,0.0003027,70.0014,14.2923,264.9754,95.106,-2.8317e-05,-4.31e-06,0.0,0 STARLINK-5313,1 55313U 23010AW  24081.90113717 -.00000431  00000-0 -28317-4 0  9992,2 55313  70.0014  14.2923 0003027 264.9754  95.1060 14.98332330 65931,6950.186,96.107,574.155,569.947,0.0
55313.0,STARLINK-5313,PAYLOAD,2024-03-21 23:13:46,14.98332368,0.0003002,70.0015,14.1242,265.4561,94.6255,-8.7425e-06,-1.97e-06,0.0,0 STARLINK-5313,1 55313U 23010AW  24081.96789656 -.00000197  00000-0 -87425-5 0  9994,2 55313  70.0015  14.1242 0003002 265.4561  94.6255 14.98332368 67135,6950.186,96.107,574.137,569.964,0.0
55313.0,STARLINK-5313,PAYLOAD,2024-03-22 05:38:17,14.98341479,0.0002301,70.004,13.4533,232.0823,128.0128,4.9245e-05,4.95e-06,0.0,0 STARLINK-5313,1 55313U 23010AW  24082.23492758  .00000495  00000-0  49245-4 0  9995,2 55313  70.0040  13.4533 0002301 232.0823 128.0128 14.98341479 65985,6950.157,96.106,573.622,570.423,0.0
55313.0,STARLINK-5313,PAYLOAD,2024-03-22 21:39:39,14.98321219,0.0002921,70.0016,11.7683,266.5288,93.5537,-3.0732e-07,-9.7e-07,0.0,0 STARLINK-5313,1 55313U 23010AW  24082.90254147 -.00000097  00000-0 -30732-6 0  9990,2 55313  70.0016  11.7683 0002921 266.5288  93.5537 14.98321219 66082,6950.22,96.108,574.115,570.055,0.0
55313.0,STARLINK-5313,PAYLOAD,2024-03-23 21:41:40,14.98334268,0.0002574,70.0022,9.2433,256.9695,103.1176,-6.3761e-05,-8.54e-06,0.0,0 STARLINK-5313,1 55313U 23010AW  24083.90393718 -.00000854  00000-0 -63761-4 0  9996,2 55313  70.0022   9.2433 0002574 256.9695 103.1176 14.98334268 66235,6950.18,96.107,573.834,570.256,0.0
55313.0,STARLINK-5313,PAYLOAD,2024-03-24 04:06:11,14.98339999,0.0001918,70.004,8.5718,244.1538,115.9424,2.0124e-05,1.47e-06,0.0,0 STARLINK-5313,1 55313U 23010AW  24084.17097090  .00000147  00000-0  20124-4 0  9999,2 55313  70.0040   8.5718 0001918 244.1538 115.9424 14.98339999 66276,6950.162,96.106,573.36,570.694,0.0
55313.0,STARLINK-5313,PAYLOAD,2024-03-24 12:06:52,14.98340858,0.0002568,70.0037,7.7302,276.7598,83.3268,-6.1916e-05,-8.32e-06,0.0,0 STARLINK-5313,1 55313U 23010AW  24084.50476931 -.00000832  00000-0 -61916-4 0  9998,2 55313  70.0037   7.7302 0002568 276.7598  83.3268 14.98340858 67519,6950.159,96.106,573.809,570.24,0.0
55313.0,STARLINK-5313,PAYLOAD,2024-03-24 21:43:41,14.98326784,0.0002446,70.0022,6.7198,252.5902,107.499,5.2963e-05,5.39e-06,0.0,0 STARLINK-5313,1 55313U 23010AW  24084.90533659  .00000539  00000-0  52963-4 0  9997,2 55313  70.0022   6.7198 0002446 252.5902 107.4990 14.98326784 66387,6950.203,96.107,573.768,570.368,0.0
55313.0,STARLINK-5313,PAYLOAD,2024-03-25 12:08:57,14.98281898,0.0002759,70.0024,5.2031,274.6985,85.3858,-0.00050947,-6.159e-05,0.0,0 STARLINK-5313,1 55313U 23010AW  24085.50622458 -.00006159  00000-0 -50947-3 0  9995,2 55313  70.0024   5.2031 0002759 274.6985  85.3858 14.98281898 66475,6950.342,96.11,574.124,570.289,0.0
55313.0,STARLINK-5313,PAYLOAD,2024-03-25 21:45:44,14.98322746,0.0002341,70.0009,4.1915,256.3741,103.7157,-0.00013828,-1.742e-05,0.0,0 STARLINK-5313,1 55313U 23010AW  24085.90676054 -.00001742  00000-0 -13828-3 0  9990,2 55313  70.0009   4.1915 0002341 256.3741 103.7157 14.98322746 66533,6950.215,96.107,573.707,570.453,0.0
55313.0,STARLINK-5313,PAYLOAD,2024-03-26 12:10:55,14.9834113,0.0003199,69.9999,2.677,270.383,89.6962,-6.66e-05,-8.88e-06,0.0,0 STARLINK-5313,1 55313U 23010AW  24086.50758819 -.00000888  00000-0 -66600-4 0  9994,2 55313  69.9999   2.6770 0003199 270.3830  89.6962 14.98341130 66621,6950.158,96.106,574.247,569.8,0.0
55313.0,STARLINK-5313,PAYLOAD,2024-03-26 21:47:43,14.98321923,0.0003639,69.9994,1.6669,268.3586,91.7156,0.00045843,5.38e-05,0.0,0 STARLINK-5313,1 55313U 23010AW  24086.90814538  .00005380  00000-0  45843-3 0  9994,2 55313  69.9994   1.6669 0003639 268.3586  91.7156 14.98321923 67871,6950.218,96.108,574.612,569.554,0.0
55313.0,STARLINK-5313,PAYLOAD,2024-03-27 04:12:14,14.98353097,0.0002946,70.0,0.9944,272.6275,87.4547,0.0003109,3.621e-05,0.0,0 STARLINK-5313,1 55313U 23010AW  24087.17516966  .00003621  00000-0  31090-3 0  9993,2 55313  70.0000   0.9944 0002946 272.6275  87.4547 14.98353097 66729,6950.121,96.106,574.034,569.939,0.0
55313.0,STARLINK-5313,PAYLOAD,2024-03-27 20:13:37,14.98314852,0.0002847,69.9991,359.3091,283.8202,76.264,0.00041439,4.853e-05,0.0,0 STARLINK-5313,1 55313U 23010AW  24087.84279397  .00004853  00000-0  41439-3 0  9997,2 55313  69.9991 359.3091 0002847 283.8202  76.2640 14.98314852 66820,6950.24,96.108,574.083,570.126,0.0
55313.0,STARLINK-5313,PAYLOAD,2024-03-27 21:49:45,14.98322225,0.0002301,69.9995,359.1397,287.1371,72.9536,0.00031796,3.702e-05,0.0,0 STARLINK-5313,1 55313U 23010AW  24087.90955342  .00003702  00000-0  31796-3 0  9992,2 55313  69.9995 359.1397 0002301 287.1371  72.9536 14.98322225 68024,6950.217,96.107,573.681,570.483,0.0
55313.0,STARLINK-5313,PAYLOAD,2024-03-28 04:14:17,14.98337273,0.0003035,69.9999,358.4692,273.8695,86.2117,9.426e-05,1.032e-05,0.0,0 STARLINK-5313,1 55313U 23010AW  24088.17658774  .00001032  00000-0  94260-4 0  9991,2 55313  69.9999 358.4692 0003035 273.8695  86.2117 14.98337273 66877,6950.17,96.107,574.145,569.926,0.0
55313.0,STARLINK-5313,PAYLOAD,2024-03-28 10:38:49,14.98340535,0.0003024,69.9999,357.7953,276.1071,83.9744,-2.7029e-05,-4.16e-06,0.0,0 STARLINK-5313,1 55313U 23010AW  24088.44362709 -.00000416  00000-0 -27029-4 0  9997,2 55313  69.9999 357.7953 0003024 276.1071  83.9744 14.98340535 68104,6950.16,96.106,574.127,569.924,0.0
55313.0,STARLINK-5313,PAYLOAD,2024-03-28 21:51:45,14.98344322,0.0002857,70.0004,356.6181,275.8151,84.2683,-0.0001849,-2.299e-05,0.0,0 STARLINK-5313,1 55313U 23010AW  24088.91094563 -.00002299  00000-0 -18490-3 0  9991,2 55313  70.0004 356.6181 0002857 275.8151  84.2683 14.98344322 68174,6950.149,96.106,573.999,570.028,0.0
55313.0,STARLINK-5313,PAYLOAD,2024-03-29 04:16:17,14.98350099,0.0002819,70.0004,355.9456,272.8864,87.1972,-0.00012892,-1.632e-05,0.0,0 STARLINK-5313,1 55313U 23010AW  24089.17797705 -.00001632  00000-0 -12892-3 0  9998,2 55313  70.0004 355.9456 0002819 272.8864  87.1972 14.98350099 67021,6950.131,96.106,573.955,570.036,0.0
55313.0,STARLINK-5313,PAYLOAD,2024-03-29 10:40:49,14.98344538,0.0002758,70.0009,355.2713,273.7047,86.3796,-0.00021296,-2.634e-05,0.0,0 STARLINK-5313,1 55313U 23010AW  24089.44502010 -.00002634  00000-0 -21296-3 0  9992,2 55313  70.0009 355.2713 0002758 273.7047  86.3796 14.98344538 67060,6950.148,96.106,573.93,570.096,0.0
55313.0,STARLINK-5313,PAYLOAD,2024-03-29 17:05:22,14.9832641,0.0002462,70.0016,354.5979,275.6828,84.4051,-2.1675e-05,-3.51e-06,0.0,0 STARLINK-5313,1 55313U 23010AW  24089.71206555 -.00000351  00000-0 -21675-4 0  9993,2 55313  70.0016 354.5979 0002462 275.6828  84.4051 14.98326410 67101,6950.204,96.107,573.78,570.358,0.0
